CTC1_L_00512025-17
1 10496U 22436ZB  26075.70037037  .00000000  00000+0  00000-0 0  9993
2 10496  97.5000 288.0000 0000000   0.0000 345.6000 15.08756051    18
CTC1_L_00512025-18
1 10497U 24649XW  26075.70037037  .00000000  00000+0  00000-0 0  9992
2 10497  97.5000 288.0000 0000000   0.0000   3.6000 15.08756051    10
CTC1_L_00512025-19
1 10498U 22060IZ  26075.70037037  .00000000  00000+0  00000-0 0  9998
2 10498  97.5000 288.0000 0000000   0.0000  21.6000 15.08756051    11
CTC1_L_00512025-20
1 10499U 26779KL  26075.70037037  .00000000  00000+0  00000-0 0  9990
2 10499  97.5000 288.0000 0000000   0.0000  39.6000 15.08756051    11
CTC1_L_00512026-01
1 10500U 25113KE  26075.70037037  .00000000  00000+0  00000-0 0  9994
2 10500  97.5000 300.0000 0000000   0.0000  60.0000 15.08756051    17
CTC1_L_00512026-02
1 10501U 24868RR  26075.70037037  .00000000  00000+0  00000-0 0  9991
2 10501  97.5000 300.0000 0000000   0.0000  78.0000 15.08756051    17
CTC1_L_00512026-03
1 10502U 22833UF  26075.70037037  .00000000  00000+0  00000-0 0  9992
2 10502  97.5000 300.0000 0000000   0.0000  96.0000 15.08756051    18
CTC1_L_00512026-04
1 10503U 22533JQ  26075.70037037  .00000000  00000+0  00000-0 0  9990
2 10503  97.5000 300.0000 0000000   0.0000 114.0000 15.08756051    10
CTC1_L_00512026-05
1 10504U 25106NO  26075.70037037  .00000000  00000+0  00000-0 0  9990
2 10504  97.5000 300.0000 0000000   0.0000 132.0000 15.08756051    11
CTC1_L_00512026-06
1 10505U 23746XJ  26075.70037037  .00000000  00000+0  00000-0 0  9999
2 10505  97.5000 300.0000 0000000   0.0000 150.0000 15.08756051    12
CTC1_L_00512026-07
1 10506U 22769LO  26075.70037037  .00000000  00000+0  00000-0 0  9994
2 10506  97.5000 300.0000 0000000   0.0000 168.0000 15.08756051    12
CTC1_L_00512026-08
1 10507U 24499AG  26075.70037037  .00000000  00000+0  00000-0 0  9997
2 10507  97.5000 300.0000 0000000   0.0000 186.0000 15.08756051    13
CTC1_L_00512026-09
1 10508U 26347XA  26075.70037037  .00000000  00000+0  00000-0 0  9992
2 10508  97.5000 300.0000 0000000   0.0000 204.0000 15.08756051    15
CTC1_L_00512026-10
1 10509U 23599AD  26075.70037037  .00000000  00000+0  00000-0 0  9999
2 10509  97.5000 300.0000 0000000   0.0000 222.0000 15.08756051    16
CTC1_L_00512026-11
1 10510U 24365KK  26075.70037037  .00000000  00000+0  00000-0 0  9993
2 10510  97.5000 300.0000 0000000   0.0000 240.0000 15.08756051    18
CTC1_L_00512026-12
1 10511U 25221RU  26075.70037037  .00000000  00000+0  00000-0 0  9996
2 10511  97.5000 300.0000 0000000   0.0000 258.0000 15.08756051    18
CTC1_L_00512026-13
1 10512U 26483UX  26075.70037037  .00000000  00000+0  00000-0 0  9998
2 10512  97.5000 300.0000 0000000   0.0000 276.0000 15.08756051    19
CTC1_L_00512026-14
1 10513U 25427UB  26075.70037037  .00000000  00000+0  00000-0 0  9996
2 10513  97.5000 300.0000 0000000   0.0000 294.0000 15.08756051    10
CTC1_L_00512026-15
1 10514U 26748G   26075.70037037  .00000000  00000+0  00000-0 0  9994
2 10514  97.5000 300.0000 0000000   0.0000 312.0000 15.08756051    12
CTC1_L_00512026-16
1 10515U 24369RI  26075.70037037  .00000000  00000+0  00000-0 0  9992
2 10515  97.5000 300.0000 0000000   0.0000 330.0000 15.08756051    13
CTC1_L_00512026-17
1 10516U 26291AF  26075.70037037  .00000000  00000+0  00000-0 0  9999
2 10516  97.5000 300.0000 0000000   0.0000 348.0000 15.08756051    13
CTC1_L_00512026-18
1 10517U 24023GC  26075.70037037  .00000000  00000+0  00000-0 0  9991
2 10517  97.5000 300.0000 0000000   0.0000   6.0000 15.08756051    15
CTC1_L_00512026-19
1 10518U 23391RD  26075.70037037  .00000000  00000+0  00000-0 0  9999
2 10518  97.5000 300.0000 0000000   0.0000  24.0000 15.08756051    16
CTC1_L_00512026-20
1 10519U 23544DP  26075.70037037  .00000000  00000+0  00000-0 0  9990
2 10519  97.5000 300.0000 0000000   0.0000  42.0000 15.08756051    17
CTC1_L_00512027-01
1 10520U 24217VZ  26075.70037037  .00000000  00000+0  00000-0 0  9990
2 10520  97.5000 312.0000 0000000   0.0000  62.4000 15.08756051    18
CTC1_L_00512027-02
1 10521U 26475JF  26075.70037037  .00000000  00000+0  00000-0 0  9999
2 10521  97.5000 312.0000 0000000   0.0000  80.4000 15.08756051    19
CTC1_L_00512027-03
1 10522U 25469XV  26075.70037037  .00000000  00000+0  00000-0 0  9992
2 10522  97.5000 312.0000 0000000   0.0000  98.4000 15.08756051    19
CTC1_L_00512027-04
1 10523U 24188NN  26075.70037037  .00000000  00000+0  00000-0 0  9990
2 10523  97.5000 312.0000 0000000   0.0000 116.4000 15.08756051    11
CTC1_L_00512027-05
1 10524U 26396GT  26075.70037037  .00000000  00000+0  00000-0 0  9994
2 10524  97.5000 312.0000 0000000   0.0000 134.4000 15.08756051    12
CTC1_L_00512027-06
1 10525U 23929PT  26075.70037037  .00000000  00000+0  00000-0 0  9994
2 10525  97.5000 312.0000 0000000   0.0000 152.4000 15.08756051    13
CTC1_L_00512027-07
1 10526U 25660ON  26075.70037037  .00000000  00000+0  00000-0 0  9999
2 10526  97.5000 312.0000 0000000   0.0000 170.4000 15.08756051    14
CTC1_L_00512027-08
1 10527U 24029IK  26075.70037037  .00000000  00000+0  00000-0 0  9998
2 10527  97.5000 312.0000 0000000   0.0000 188.4000 15.08756051    14
CTC1_L_00512027-09
1 10528U 25126LO  26075.70037037  .00000000  00000+0  00000-0 0  9998
2 10528  97.5000 312.0000 0000000   0.0000 206.4000 15.08756051    16
CTC1_L_00512027-10
1 10529U 23724UG  26075.70037037  .00000000  00000+0  00000-0 0  9991
2 10529  97.5000 312.0000 0000000   0.0000 224.4000 15.08756051    17
CTC1_L_00512027-11
1 10530U 25052GU  26075.70037037  .00000000  00000+0  00000-0 0  9999
2 10530  97.5000 312.0000 0000000   0.0000 242.4000 15.08756051    19
CTC1_L_00512027-12
1 10531U 24236KK  26075.70037037  .00000000  00000+0  00000-0 0  9993
2 10531  97.5000 312.0000 0000000   0.0000 260.4000 15.08756051    10
CTC1_L_00512027-13
1 10532U 23292CD  26075.70037037  .00000000  00000+0  00000-0 0  9995
2 10532  97.5000 312.0000 0000000   0.0000 278.4000 15.08756051    10
CTC1_L_00512027-14
1 10533U 23286RE  26075.70037037  .00000000  00000+0  00000-0 0  9999
2 10533  97.5000 312.0000 0000000   0.0000 296.4000 15.08756051    11
CTC1_L_00512027-15
1 10534U 22387OF  26075.70037037  .00000000  00000+0  00000-0 0  9991
2 10534  97.5000 312.0000 0000000   0.0000 314.4000 15.08756051    13
CTC1_L_00512027-16
1 10535U 26348ES  26075.70037037  .00000000  00000+0  00000-0 0  9993
2 10535  97.5000 312.0000 0000000   0.0000 332.4000 15.08756051    14
CTC1_L_00512027-17
1 10536U 22863TT  26075.70037037  .00000000  00000+0  00000-0 0  9992
2 10536  97.5000 312.0000 0000000   0.0000 350.4000 15.08756051    15
CTC1_L_00512027-18
1 10537U 22256KJ  26075.70037037  .00000000  00000+0  00000-0 0  9999
2 10537  97.5000 312.0000 0000000   0.0000   8.4000 15.08756051    16
CTC1_L_00512027-19
1 10538U 24110ZN  26075.70037037  .00000000  00000+0  00000-0 0  9991
2 10538  97.5000 312.0000 0000000   0.0000  26.4000 15.08756051    17
CTC1_L_00512027-20
1 10539U 23348CY  26075.70037037  .00000000  00000+0  00000-0 0  9994
2 10539  97.5000 312.0000 0000000   0.0000  44.4000 15.08756051    18
CTC1_L_00512028-01
1 10540U 23534YL  26075.70037037  .00000000  00000+0  00000-0 0  9993
2 10540  97.5000 324.0000 0000000   0.0000  64.8000 15.08756051    19
CTC1_L_00512028-02
1 10541U 26844BZ  26075.70037037  .00000000  00000+0  00000-0 0  9991
2 10541  97.5000 324.0000 0000000   0.0000  82.8000 15.08756051    10
CTC1_L_00512028-03
1 10542U 24873ZO  26075.70037037  .00000000  00000+0  00000-0 0  9992
2 10542  97.5000 324.0000 0000000   0.0000 100.8000 15.08756051    12
CTC1_L_00512028-04
1 10543U 22003ES  26075.70037037  .00000000  00000+0  00000-0 0  9996
2 10543  97.5000 324.0000 0000000   0.0000 118.8000 15.08756051    12
CTC1_L_00512028-05
1 10544U 25255ED  26075.70037037  .00000000  00000+0  00000-0 0  9999
2 10544  97.5000 324.0000 0000000   0.0000 136.8000 15.08756051    13
CTC1_L_00512028-06
1 10545U 24690RP  26075.70037037  .00000000  00000+0  00000-0 0  9992
2 10545  97.5000 324.0000 0000000   0.0000 154.8000 15.08756051    14
CTC1_L_00512028-07
1 10546U 23340TH  26075.70037037  .00000000  00000+0  00000-0 0  9994
2 10546  97.5000 324.0000 0000000   0.0000 172.8000 15.08756051    15
CTC1_L_00512028-08
1 10547U 23673WZ  26075.70037037  .00000000  00000+0  00000-0 0  9994
2 10547  97.5000 324.0000 0000000   0.0000 190.8000 15.08756051    16
CTC1_L_00512028-09
1 10548U 22846QP  26075.70037037  .00000000  00000+0  00000-0 0  9996
2 10548  97.5000 324.0000 0000000   0.0000 208.8000 15.08756051    17
CTC1_L_00512028-10
1 10549U 24988AB  26075.70037037  .00000000  00000+0  00000-0 0  9996
2 10549  97.5000 324.0000 0000000   0.0000 226.8000 15.08756051    18
CTC1_L_00512028-11
1 10550U 25022UA  26075.70037037  .00000000  00000+0  00000-0 0  9998
2 10550  97.5000 324.0000 0000000   0.0000 244.8000 15.08756051    10
CTC1_L_00512028-12
1 10551U 25060VZ  26075.70037037  .00000000  00000+0  00000-0 0  9991
2 10551  97.5000 324.0000 0000000   0.0000 262.8000 15.08756051    11
CTC1_L_00512028-13
1 10552U 22810GR  26075.70037037  .00000000  00000+0  00000-0 0  9992
2 10552  97.5000 324.0000 0000000   0.0000 280.8000 15.08756051    12
CTC1_L_00512028-14
1 10553U 25643GZ  26075.70037037  .00000000  00000+0  00000-0 0  9990
2 10553  97.5000 324.0000 0000000   0.0000 298.8000 15.08756051    12
CTC1_L_00512028-15
1 10554U 26126OS  26075.70037037  .00000000  00000+0  00000-0 0  9998
2 10554  97.5000 324.0000 0000000   0.0000 316.8000 15.08756051    14
CTC1_L_00512028-16
1 10555U 22913PF  26075.70037037  .00000000  00000+0  00000-0 0  9999
2 10555  97.5000 324.0000 0000000   0.0000 334.8000 15.08756051    15
CTC1_L_00512028-17
1 10556U 26186C   26075.70037037  .00000000  00000+0  00000-0 0  9996
2 10556  97.5000 324.0000 0000000   0.0000 352.8000 15.08756051    16
CTC1_L_00512028-18
1 10557U 26016OI  26075.70037037  .00000000  00000+0  00000-0 0  9999
2 10557  97.5000 324.0000 0000000   0.0000  10.8000 15.08756051    18
